NORAD_CAT_ID,OBJECT_NAME,OBJECT_TYPE,EPOCH,MEAN_MOTION,ECCENTRICITY,INCLINATION,RA_OF_ASC_NODE,ARG_OF_PERICENTER,MEAN_ANOMALY,BSTAR,MEAN_MOTION_DOT,MEAN_MOTION_DDOT,TLE_LINE0,TLE_LINE1,TLE_LINE2,SEMIMAJOR_AXIS,PERIOD,APOGEE,PERIGEE,DECAYED
55276.0,STARLINK-5261,PAYLOAD,2023-09-28 21:21:46,14.98328982,0.0003013,69.9995,115.6387,264.1131,95.9684,7.6407e-05,8.19e-06,0.0,0 STARLINK-5261,1 55276U 23010H   23271.89011800  .00000819  00000-0  76407-4 0  9999,2 55276  69.9995 115.6387 0003013 264.1131  95.9684 14.98328982 39535,6950.196,96.107,574.155,569.967,0.0
55276.0,STARLINK-5261,PAYLOAD,2023-09-29 13:23:06,14.98331739,0.0002957,70.0,113.9563,262.0147,98.0676,1.7976e-05,1.22e-06,0.0,0 STARLINK-5261,1 55276U 23010H   23272.55771749  .00000122  00000-0  17976-4 0  9991,2 55276  70.0000 113.9563 0002957 262.0147  98.0676 14.98331739 39632,6950.188,96.107,574.108,569.997,0.0
55276.0,STARLINK-5261,PAYLOAD,2023-09-29 18:11:30,14.98332446,0.0002944,70.0,113.4513,262.4297,97.6527,2.1671e-05,1.66e-06,0.0,0 STARLINK-5261,1 55276U 23010H   23272.75799658  .00000166  00000-0  21671-4 0  9997,2 55276  70.0000 113.4513 0002944 262.4297  97.6527 14.98332446 39364,6950.185,96.107,574.096,570.004,0.0
55276.0,STARLINK-5261,PAYLOAD,2023-09-29 22:59:55,14.98332925,0.0002949,69.9999,112.9464,262.5621,97.5203,2.1783e-05,1.67e-06,0.0,0 STARLINK-5261,1 55276U 23010H   23272.95827583  .00000167  00000-0  21783-4 0  9993,2 55276  69.9999 112.9464 0002949 262.5621  97.5203 14.98332925 39692,6950.184,96.107,574.098,569.999,0.0
55276.0,STARLINK-5261,PAYLOAD,2023-09-30 18:13:32,14.98329017,0.0002961,69.9996,110.9246,269.8022,90.2798,-0.00012731,-1.612e-05,0.0,0 STARLINK-5261,1 55276U 23010H   23273.75940276 -.00001612  00000-0 -12731-3 0  9997,2 55276  69.9996 110.9246 0002961 269.8022  90.2798 14.98329017 39512,6950.196,96.107,574.119,570.003,0.0
55276.0,STARLINK-5261,PAYLOAD,2023-09-30 23:01:57,14.98274005,0.0002712,69.9996,110.42,273.915,86.1699,0.00082044,9.696e-05,0.0,0 STARLINK-5261,1 55276U 23010H   23273.95969675  .00009696  00000-0  82044-3 0  9995,2 55276  69.9996 110.4200 0002712 273.9150  86.1699 14.98274005 39542,6950.366,96.111,574.116,570.346,0.0
55276.0,STARLINK-5261,PAYLOAD,2023-10-01 13:27:08,14.9833134,0.0003028,69.9994,108.9051,270.7952,89.286,-1.1525e-05,-2.31e-06,0.0,0 STARLINK-5261,1 55276U 23010H   23274.56051886 -.00000231  00000-0 -11525-4 0  9994,2 55276  69.9994 108.9051 0003028 270.7952  89.2860 14.98331340 39935,6950.189,96.107,574.158,569.949,0.0
55276.0,STARLINK-5261,PAYLOAD,2023-10-01 18:15:33,14.98330749,0.0003044,69.9994,108.4002,270.773,89.3081,-1.6585e-05,-2.91e-06,0.0,0 STARLINK-5261,1 55276U 23010H   23274.76079920 -.00000291  00000-0 -16585-4 0  9992,2 55276  69.9994 108.4002 0003044 270.7730  89.3081 14.98330749 39666,6950.191,96.107,574.171,569.94,0.0
55276.0,STARLINK-5261,PAYLOAD,2023-10-01 21:27:48,14.98333153,0.0003036,69.9992,108.0635,270.8719,89.2092,1.0873e-05,3.7e-07,0.0,0 STARLINK-5261,1 55276U 23010H   23274.89431672  .00000037  00000-0  10873-4 0  9992,2 55276  69.9992 108.0635 0003036 270.8719  89.2092 14.98333153 39989,6950.183,96.107,574.158,569.938,0.0
55276.0,STARLINK-5261,PAYLOAD,2023-10-02 19:53:41,14.98330694,0.0003075,69.9991,105.7068,271.1008,88.9798,9.3332e-05,1.021e-05,0.0,0 STARLINK-5261,1 55276U 23010H   23275.82895509  .00001021  00000-0  93332-4 0  9994,2 55276  69.9991 105.7068 0003075 271.1008  88.9798 14.98330694 39829,6950.191,96.107,574.193,569.919,0.0
55276.0,STARLINK-5261,PAYLOAD,2023-10-03 13:31:10,14.98333439,0.0003019,69.999,103.855,271.5049,88.5764,-7.0799e-06,-1.78e-06,0.0,0 STARLINK-5261,1 55276U 23010H   23276.56331491 -.00000178  00000-0 -70799-5 0  9998,2 55276  69.9990 103.8550 0003019 271.5049  88.5764 14.98333439 40236,6950.182,96.107,574.146,569.949,0.0
55276.0,STARLINK-5261,PAYLOAD,2023-10-03 19:55:42,14.9833499,0.0003003,69.9989,103.1817,271.4434,88.6381,1.0745e-05,3.5e-07,0.0,0 STARLINK-5261,1 55276U 23010H   23276.83035259  .00000035  00000-0  10745-4 0  9995,2 55276  69.9989 103.1817 0003003 271.4434  88.6381 14.98334990 40276,6950.177,96.107,574.13,569.955,0.0
55276.0,STARLINK-5261,PAYLOAD,2023-10-04 13:33:11,14.98332901,0.0002877,69.9992,101.3309,266.7867,93.2963,-3.1556e-05,-4.7e-06,0.0,0 STARLINK-5261,1 55276U 23010H   23277.56471270 -.00000470  00000-0 -31556-4 0  9991,2 55276  69.9992 101.3309 0002877 266.7867  93.2963 14.98332901 40381,6950.184,96.107,574.048,570.049,0.0
55276.0,STARLINK-5261,PAYLOAD,2023-10-04 21:33:51,14.98332667,0.00029,69.9993,100.4891,267.3761,92.7066,-3.1492e-05,-4.69e-06,0.0,0 STARLINK-5261,1 55276U 23010H   23277.89851207 -.00000469  00000-0 -31492-4 0  9996,2 55276  69.9993 100.4891 0002900 267.3761  92.7066 14.98332667 40438,6950.185,96.107,574.065,570.034,0.0
55276.0,STARLINK-5261,PAYLOAD,2023-10-04 23:09:59,14.98333433,0.0002902,69.9993,100.3208,267.037,93.0457,-2.3329e-05,-3.71e-06,0.0,0 STARLINK-5261,1 55276U 23010H   23277.96527118 -.00000371  00000-0 -23329-4 0  9997,2 55276  69.9993 100.3208 0002902 267.0370  93.0457 14.98333433 40142,6950.182,96.107,574.064,570.03,0.0
55276.0,STARLINK-5261,PAYLOAD,2023-10-05 13:35:12,14.98329147,0.0002922,69.9991,98.8044,270.3988,89.6836,-4.9301e-05,-6.81e-06,0.0,0 STARLINK-5261,1 55276U 23010H   23278.56611407 -.00000681  00000-0 -49301-4 0  9991,2 55276  69.9991  98.8044 0002922 270.3988  89.6836 14.98329147 40535,6950.196,96.107,574.091,570.03,0.0
55276.0,STARLINK-5261,PAYLOAD,2023-10-05 21:35:52,14.9832915,0.0002938,69.9991,97.9631,269.7419,90.3404,-4.7379e-05,-6.58e-06,0.0,0 STARLINK-5261,1 55276U 23010H   23278.89991398 -.00000658  00000-0 -47379-4 0  9994,2 55276  69.9991  97.9631 0002938 269.7419  90.3404 14.98329150 40584,6950.196,96.107,574.102,570.019,0.0
55276.0,STARLINK-5261,PAYLOAD,2023-10-06 05:36:32,14.98335601,0.0003016,69.999,97.121,269.5929,90.4884,4.5438e-05,4.49e-06,0.0,0 STARLINK-5261,1 55276U 23010H   23279.23370660  .00000449  00000-0  45438-4 0  9996,2 55276  69.9990  97.1210 0003016 269.5929  90.4884 14.98335601 40334,6950.176,96.107,574.137,569.944,0.0
55276.0,STARLINK-5261,PAYLOAD,2023-10-06 13:37:12,14.98337379,0.0003045,69.999,96.2794,269.6903,90.3908,6.538e-05,6.87e-06,0.0,0 STARLINK-5261,1 55276U 23010H   23279.56750358  .00000687  00000-0  65380-4 0  9990,2 55276  69.9990  96.2794 0003045 269.6903  90.3908 14.98337379 40684,6950.17,96.107,574.151,569.919,0.0
55276.0,STARLINK-5261,PAYLOAD,2023-10-06 21:37:52,14.98339099,0.0003044,69.9991,95.4378,269.8089,90.2722,7.9709e-05,8.58e-06,0.0,0 STARLINK-5261,1 55276U 23010H   23279.90130045  .00000858  00000-0  79709-4 0  9993,2 55276  69.9991  95.4378 0003044 269.8089  90.2722 14.98339099 40730,6950.165,96.106,574.145,569.914,0.0
55276.0,STARLINK-5261,PAYLOAD,2023-10-07 10:26:57,14.98324723,0.0002996,69.9992,94.0916,270.4043,89.6773,-4.1637e-05,-5.9e-06,0.0,0 STARLINK-5261,1 55276U 23010H   23280.43539217 -.00000590  00000-0 -41637-4 0  9991,2 55276  69.9992  94.0916 0002996 270.4043  89.6773 14.98324723 40519,6950.209,96.107,574.156,569.992,0.0
55276.0,STARLINK-5261,PAYLOAD,2023-10-07 13:39:14,14.98323271,0.0003029,69.9989,93.7544,269.5381,90.5431,-2.6635e-05,-4.11e-06,0.0,0 STARLINK-5261,1 55276U 23010H   23280.56891299 -.00000411  00000-0 -26635-4 0  9999,2 55276  69.9989  93.7544 0003029 269.5381  90.5431 14.98323271 40834,6950.214,96.107,574.184,569.973,0.0
55276.0,STARLINK-5261,PAYLOAD,2023-10-07 21:39:54,14.98324815,0.0003009,69.9994,92.913,269.681,90.4004,-4.0511e-05,-5.76e-06,0.0,0 STARLINK-5261,1 55276U 23010H   23280.90271340 -.00000576  00000-0 -40511-4 0  9997,2 55276  69.9994  92.9130 0003009 269.6810  90.4004 14.98324815 40883,6950.209,96.107,574.165,569.983,0.0
55276.0,STARLINK-5261,PAYLOAD,2023-10-08 10:28:58,14.98332933,0.000288,70.0,91.5667,271.9057,88.1772,-7.6412e-05,-1.005e-05,0.0,0 STARLINK-5261,1 55276U 23010H   23281.43679011 -.00001005  00000-0 -76412-4 0  9990,2 55276  70.0000  91.5667 0002880 271.9057  88.1772 14.98332933 40661,6950.184,96.107,574.05,570.047,0.0
55276.0,STARLINK-5261,PAYLOAD,2023-10-08 13:41:14,14.98332971,0.0002892,70.0,91.2301,272.0568,88.026,-7.0138e-05,-9.3e-06,0.0,0 STARLINK-5261,1 55276U 23010H   23281.57030964 -.00000930  00000-0 -70138-4 0  9998,2 55276  70.0000  91.2301 0002892 272.0568  88.0260 14.98332971 40983,6950.184,96.107,574.059,570.039,0.0
55276.0,STARLINK-5261,PAYLOAD,2023-10-08 20:05:46,14.98332765,0.0002896,70.0,90.5573,270.6409,89.4418,-6.4884e-05,-8.67e-06,0.0,0 STARLINK-5261,1 55276U 23010H   23281.83734914 -.00000867  00000-0 -64884-4 0  9993,2 55276  70.0000  90.5573 0002896 270.6409  89.4418 14.98332765 41025,6950.184,96.107,574.062,570.037,0.0
55276.0,STARLINK-5261,PAYLOAD,2023-10-09 13:43:15,14.98327172,0.0003019,69.9998,88.7054,271.4534,88.628,7.8178e-05,8.4e-06,0.0,0 STARLINK-5261,1 55276U 23010H   23282.57170842  .00000840  00000-0  78178-4 0  9999,2 55276  69.9998  88.7054 0003019 271.4534  88.6280 14.98327172 41133,6950.202,96.107,574.165,569.968,0.0
55276.0,STARLINK-5261,PAYLOAD,2023-10-09 18:31:39,14.98329391,0.0002979,69.9998,88.2005,271.6252,88.4566,0.00010025,1.103e-05,0.0,0 STARLINK-5261,1 55276U 23010H   23282.77198663  .00001103  00000-0  10025-3 0  9991,2 55276  69.9998  88.2005 0002979 271.6252  88.4566 14.98329391 40866,6950.195,96.107,574.13,569.989,0.0
55276.0,STARLINK-5261,PAYLOAD,2023-10-09 21:43:55,14.98330943,0.0002969,69.9999,87.8639,271.1083,88.9736,0.00011254,1.25e-05,0.0,0 STARLINK-5261,1 55276U 23010H   23282.90550521  .00001250  00000-0  11254-3 0  9999,2 55276  69.9999  87.8639 0002969 271.1083  88.9736 14.98330943 41186,6950.19,96.107,574.118,569.991,0.0
55276.0,STARLINK-5261,PAYLOAD,2023-10-10 13:45:16,14.98329363,0.00029,69.9999,86.1807,270.9139,89.1688,-1.6786e-06,-1.13e-06,0.0,0 STARLINK-5261,1 55276U 23010H   23283.57310929 -.00000113  00000-0 -16786-5 0  9995,2 55276  69.9999  86.1807 0002900 270.9139  89.1688 14.98329363 41283,6950.195,96.107,574.075,570.044,0.0
